ID,Name of Facility,Category,Type,Type_of_Ownership,Contact_Person,Contact_No,Used_for_Corona_Response,No_of_Beds,Number_of_ICU_Wards,Number_of_Ventilators,Number_of_Isolation_Beds,Remaining_Capacity,Remarks,Latitude,Longitude,Province,District,Municipality,hlcit code
1,Mahakali Hospital,Medical Facilities,Hospitals,,,,Yes,,,,6,,,28.963782,80.185052,Sudurpaschim Province,KANCHANPUR,Bhimdatta Nagarpalika,
2,Seti Provincial Hospital,Medical Facilities,Hospitals,,,,Yes,,,,7,,,28.703979,80.587831,Sudurpaschim Province,KAILALI,Dhangadhi Upamahanagarpalika,
3,Tikapur Hospital,Medical Facilities,Hospitals,,,,Yes,,,,2,,,28.53414,81.120766,Sudurpaschim Province,KAILALI,Tikapur Nagarpalika,
4,Malakheti Hospital,Medical Facilities,Hospitals,,,,Yes,,,,0,,,28.814305,80.538137,Sudurpaschim Province,KAILALI,Godawari Nagarpalika,
5,Bajura District Hospital,Medical Facilities,Hospitals,Government,,,Yes,,,,3,,,29.459239,81.481121,Sudurpaschim Province,BAJURA,Badimalika Nagarpalika,
6,Bajhang District Hospital,Medical Facilities,Hospitals,Government,,,Yes,,,,1,,,29.54754,81.193376,Sudurpaschim Province,BAJHANG,JayaPrithivi Nagarpalika,
7,Baitadi District Hospital,Medical Facilities,Hospitals,Government,,,Yes,,,,3,,,29.46335,80.549991,Sudurpaschim Province,BAITADI,Patan Nagarpalika,
8,Darchula District Hospital,Medical Facilities,Hospitals,Government,,,Yes,,,,2,,,29.848146,80.54449,Sudurpaschim Province,DARCHULA,,
9,Dadeldhura Hospital,Medical Facilities,Hospitals,,,,Yes,,,,6,,,29.304633,80.589769,Sudurpaschim Province,DADELDHURA,Amargadhi Nagarpalika,
10,Jogbuda Hospital,Medical Facilities,Hospitals,,,,Yes,,,,2,,,29.127925,80.356029,Sudurpaschim Province,DADELDHURA,Parashuram Nagarpalika,
11,Doti District Hospital,Medical Facilities,Hospitals,,,,Yes,,,,2,,,29.270551,80.987949,Sudurpaschim Province,DOTI,Dipayal Silgadi Nagarpalika,
12,Achham District Hospital,Medical Facilities,Hospitals,,,,Yes,,,,3,,,29.19,81.14,Sudurpaschim Province,ACHHAM,Chaurpati Gaunpalika,
13,Bayalpata Hospital,Medical Facilities,Hospitals,,,,Yes,,,,3,,,29.218954,81.222399,Sudurpaschim Province,ACHHAM,Sanphebagar Nagarpalika,
14,Padma Hospital,Medical Facilities,Hospitals,,,,Yes,,,,3,,,28.8116311,80.5532168,Sudurpaschim Province,KAILALI,Godawari Nagarpalika,
15,CP Hospital,Medical Facilities,Hospitals,,,,Yes,,,,1,,,28.71526,80.569201,Sudurpaschim Province,KAILALI,Dhangadhi Upamahanagarpalika,
16,Navajeevan Hospital,Medical Facilities,Hospitals,,,,Yes,,,,2,,,28.70719,80.576199,Sudurpaschim Province,KAILALI,Dhangadhi Upamahanagarpalika,
17,Ghodaghodi Hospital,Medical Facilities,Hospitals,,,,Yes,,,,0,,,28.674553,80.961,Sudurpaschim Province,KAILALI,Ghodaghodi Nagarpalika,
18,NOVA Hospital,Medical Facilities,Hospitals,,,,Yes,,,,2,,,28.703765,80.586428,Sudurpaschim Province,KAILALI,Dhangadhi Upamahanagarpalika,
19,Maya Metro Hospital,Medical Facilities,Hospitals,,,,Yes,,,,2,,,28.71146,80.568411,Sudurpaschim Province,KAILALI,Dhangadhi Upamahanagarpalika,
20,Nisarga Hospital,Medical Facilities,Hospitals,,,,Yes,,,,3,,,28.708111,80.58683,Sudurpaschim Province,KAILALI,Dhangadhi Upamahanagarpalika,
21,Sarathi Hospital,Medical Facilities,Hospitals,,,,Yes,,,,0,,,28.70471,80.586334,Sudurpaschim Province,KAILALI,Dhangadhi Upamahanagarpalika,
22,Saileshwori Hospital,Medical Facilities,Hospitals,,,,Yes,,,,2,,,28.704,80.586,Sudurpaschim Province,KAILALI,Dhangadhi Upamahanagarpalika,
23,Narayani Hospital Birgunj,Medical Facilities,Hospitals,,,,Yes,,,,4,,,27.005664,84.872385,Province 2,PARSA,Birgunj Mahanagarpalika,
24,Gajendra Narayan Singh Sagarmatha Hospital Rajbiraj,Medical Facilities,Hospitals,,,,Yes,,,,4,,,26.53614,86.749476,Province 2,SAPTARI,Rajbiraj Nagarpalika,
25,National Medical College Birgunj,Medical Facilities,Hospitals,,,,Yes,,,,50,,,27.138662,85.016169,Province 2,BARA,Jitpur Simara Upamahanagarpalika,
26,Janaki Medical Collage Ramdaiya and CITY Hospital Janakpur,Medical Facilities,Hospitals,,,,Yes,,,,60,,,26.8159123,85.9537811,Province 2,DHANUSHA,Chhireshwornath Nagarpalika,
27,Provincial Hospital Janakpur,Medical Facilities,Hospitals,,,,Yes,,,,2,,,26.7333281,85.9235284,Province 2,DHANUSHA,Janakpur Upamahanagarpalika,
28,Lumbini Provincial Hospital,Medical Facilities,Hospitals,,,9851059878,Yes,,,,2,,,27.69775,83.464173,Province 5,RUPANDEHI,Butwal Upamahanagarpalika,
29,Rapti Provincial Hospital,Medical Facilities,Hospitals,,,9857825717,Yes,,,,3,,,28.127538,82.258292,Province 5,DANG,Tulsipur Upamahanagarpalika,
30,Bheri Hospital,Medical Facilities,Hospitals,Government,,8520120,Yes,,,,5,,,28.053041,81.619704,Province 5,BANKE,Nepalgunj Upamahanagarpalika,
31,Prithvichandra Hospital,Medical Facilities,Hospitals,,,9857050996,Yes,,,,5,,,27.531661,83.665292,Province 5,NAWALPARASI_W,Ramgram Nagarpalika,
32,Kapilvastu Hospital,Medical Facilities,Hospitals,,,9851162080,Yes,,,,4,,,27.543578,83.056168,Province 5,KAPILBASTU,Kapilbastu Nagarpalika,
33,Bhim Hospital,Medical Facilities,Hospitals,,,9843270221,Yes,,,,4,,,27.505764,83.4540957,Province 5,RUPANDEHI,Siddharthanagar Nagarpalika,
34,Gulmi Hospital,Medical Facilities,Hospitals,Government,,9844740606,Yes,,,,7,,,28.07,83.25,Province 5,GULMI,Resunga Nagarpalika,
35,Bardiya Hospital,Medical Facilities,Hospitals,Government,,9848780183,Yes,,,,2,,,28.2,81.35,Province 5,BARDIYA,Gulariya Nagarpalika,
36,Rapti Academy of Health Science,Medical Facilities,Hospitals,,,82562365,Yes,,,,10,,,28.0587672,82.4839166,Province 5,DANG,Ghorahi Upamahanagarpalika,
37,Devdaha Medical College,Medical Facilities,Hospitals,,,9847060131,Yes,,,,15,,,27.6472874,83.536645,Province 5,RUPANDEHI,Devdaha Nagarpalika,
38,Lumbini Medical College,Medical Facilities,Hospitals,Private,,75411201,Yes,,,,10,,,27.84,83.54,Province 5,PALPA,Tansen Nagarpalika,
39,Universal College of Medical Science,Medical Facilities,Hospitals,Private,,9847032827,Yes,,,,10,,,27.49,83.45,Province 5,RUPANDEHI,Siddharthanagar Nagarpalika,
40,Nepalgunj Medical College,Medical Facilities,Hospitals,,,9841663962,Yes,,,,6,,,28.198209,81.677717,Province 5,BANKE,Kohalpur Nagarpalika,
41,U.M.N Hospital,Medical Facilities,Hospitals,Private,,9847116263,Yes,,,,6,,,27.87,83.56,Province 5,PALPA,Tansen Nagarpalika,
42,Kirtipur Hospital,Medical Facilities,Hospitals,,,01-4331390,Yes,,20,,,,,27.6827997,85.273379,Bagmati Province,KATHMANDU,Kirtipur Nagarpalika,
43,Teku Hospital,Medical Facilities,Hospitals,Government,,01-4253395,Yes,,20,,100,,,27.6954492,85.3047526,Bagmati Province,KATHMANDU,Kathmandu Mahanagarpalika,
44,Bir Hospital,Medical Facilities,Hospitals,,,01-4221119,Yes,,20,,,,,27.704788,85.313626,Bagmati Province,KATHMANDU,Kathmandu Mahanagarpalika,
45,Patan Hospital,Medical Facilities,Hospitals,,,01-5522295,Yes,,20,,70,,,27.6683067,85.318379,Bagmati Province,LALITPUR,Lalitpur Mahanagarpalika,
46,Alka Hospital,Medical Facilities,Hospitals,,,01-5555555,Yes,,,,,,,27.6753401,85.3141149,Bagmati Province,LALITPUR,Lalitpur Mahanagarpalika,
47,B&B Hospital,Medical Facilities,Hospitals,,,01-5531933,Yes,,,,,,,27.664764,85.329725,Bagmati Province,LALITPUR,Lalitpur Mahanagarpalika,
48,Nidan Hospital,Medical Facilities,Hospitals,,,01-5531333,Yes,,,,,,,27.678986,85.315875,Bagmati Province,LALITPUR,Lalitpur Mahanagarpalika,
49,Kist Medical College,Medical Facilities,Hospitals,,,01-521682,Yes,,,,,,,27.662927,85.335131,Bagmati Province,LALITPUR,Mahalaxmi Nagarpalika,
50,Sumeru Hospital,Medical Facilities,Hospitals,,,01-5275333,Yes,,,,,,,27.64468,85.325836,Bagmati Province,LALITPUR,Lalitpur Mahanagarpalika,
51,Charak Memorial Hospital,Medical Facilities,Hospitals,,Dr.Klara Poudel,9802823456,Yes,,10,,30,,,28.210676,83.9861,Gandaki Province,KASKI,Pokhara Lekhnath Mahanagarpalika,
52,GP Koirala Hospital,Medical Facilities,Hospitals,,Dr Ram Shrestha,9856064756,Yes,,0,,12,,,28.028749,84.08374,Gandaki Province,TANAHU,Shuklagandaki Nagarpalika,
53,Pokhara Academy of Health Sciences,Medical Facilities,Hospitals,,Dr Arjun Acharya,9856074777,Yes,,1,,10,,,28.212481,83.9979,Gandaki Province,KASKI,Pokhara Lekhnath Mahanagarpalika,
54,Manipal Teaching Hospital,Medical Facilities,Hospitals,,Dr AL Sharma,9846983936,Yes,,3,,15,,,28.236227,83.99705,Gandaki Province,KASKI,Pokhara Lekhnath Mahanagarpalika,
55,Gandaki Medical College,Medical Facilities,Hospitals,,Dr Tu Maya Ghale,9856021098,Yes,,3,,15,,,28.203473,83.98155,Gandaki Province,KASKI,Pokhara Lekhnath Mahanagarpalika,
56,Namuna Community Hospital,Medical Facilities,Hospitals,,Dr.Utkristha Adhikari,9818666582,Yes,,,,2,,,28.131494,84.40522,Gandaki Province,LAMJUNG,Sundarbazar Nagarpalika,
57,Karmada Hospital,Medical Facilities,Hospitals,,Dr.Tilak K.C,9844815073,Yes,,,,1,,,28.127365,84.41295,Gandaki Province,LAMJUNG,Sundarbazar Nagarpalika,
58,Lamjung Model Hospital,Medical Facilities,Hospitals,,Dr.Tilak Babu Ghimire,9856045975,Yes,,,,1,,,28.233094,84.3771,Gandaki Province,LAMJUNG,Besishahar Nagarpalika,
59,Besisahar Hospital,Medical Facilities,Hospitals,,Dr.Kush Nepali,9868118489,Yes,,,,1,,,28.227303,84.3777,Gandaki Province,LAMJUNG,Besishahar Nagarpalika,
60,Lamjung District Community Hospital,Medical Facilities,Hospitals,,Mr. Hemanta Shrestha,9856075102,Yes,,,,1,,,28.229348,84.38045,Gandaki Province,LAMJUNG,Besishahar Nagarpalika,
61,Dhaulagiri Zonal Hospital,Medical Facilities,Hospitals,,Dr.Shailendra Pokhrel,9851176425,Yes,,,,4,,,28.268643,83.60042,Gandaki Province,BAGLUNG,Baglung Nagarpalika,
62,Parbat District Hospital,Medical Facilities,Hospitals,Government,Dr.Manoj Ghimire,9857621119,Yes,,,,3,,,28.211657,83.67556,Gandaki Province,PARBAT,Kushma Nagarpalika,
63,Syangja District Hospital,Medical Facilities,Hospitals,Government,Dr.Sushil Marasini,9856053239,Yes,,,,4,,,28.104973,83.87395,Gandaki Province,SYANGJA,Putalibazar Nagarpalika,
64,Mustang District Hospital,Medical Facilities,Hospitals,Government,Dr.Shiba Bhandari,9849467563,Yes,,,,1,,,28.785538,83.72948,Gandaki Province,MUSTANG,Gharapjhong Gaunpalika,
65,Madhyabindu Hospital,Medical Facilities,Hospitals,,Dr.Sunilraj Ghimire,9840077913,Yes,,,,1,,,27.629341,84.0923,Gandaki Province,NAWALPARASI_E,Kawasoti Nagarpalika,
66,Muktinath Hospital,Medical Facilities,Hospitals,,,,Yes,,,,2,,,28.267617,83.59845,Gandaki Province,BAGLUNG,Baglung Nagarpalika,
67,Nilgiri Hospital,Medical Facilities,Hospitals,,,,Yes,,,,2,,,28.264438,83.59726,Gandaki Province,BAGLUNG,Baglung Nagarpalika,
68,Safal Polyclinic,Medical Facilities,Clinics,,,,Yes,,,,1,,,28.268662,83.59817,Gandaki Province,BAGLUNG,Baglung Nagarpalika,
69,Chormara PHC,Medical Facilities,Health Posts,,,,Yes,,,,2,,,27.611387,84.01838,Gandaki Province,NAWALPARASI_E,Madhyabindu Nagarpalika,
70,Dumkauli PHC,Medical Facilities,Health Posts,,,,Yes,,,,3,,,27.674298,84.20676,Gandaki Province,NAWALPARASI_E,Devchuli Nagarpalika,
71,Koshi Hospital,Medical Facilities,Hospitals,,,,Yes,,,,,,,26.45954,87.28534,Province 1,MORANG,Biratnagar Mahanagarpalika,
72,Nobel Medical Academy,Medical Facilities,Hospitals,,,,Yes,,,,,,,26.48963,87.2701,Province 1,MORANG,Biratnagar Mahanagarpalika,
73,Birat Medical College,Medical Facilities,Hospitals,,,,Yes,,,,,,,26.52352,87.27902,Province 1,MORANG,Budhiganga Gaunpalika,
74,Mechi Hospital,Medical Facilities,Hospitals,,,,Yes,,,,,,,26.55708,88.08816,Province 1,JHAPA,Bhadrapur Nagarpalika,
75,BP Koirala Institute of Health Science,Medical Facilities,Hospitals,,,,Yes,,,,,,,26.81206,87.26867,Province 1,SUNSARI,Dharan Upamahanagarpalika,
76,Kharipati-based Training Centre of Nepal Electricity Authority,Medical Facilities,Hospitals,,,,Yes,,,,220,,,27.68717,85.45496,Bagmati Province,BHAKTAPUR,Changunarayan Nagarpalika,
77,Satungal-based Nepal Armed Police Force Hospital,Medical Facilities,Hospitals,,,,Yes,,20,,,,,27.69011,85.25215,Bagmati Province,KATHMANDU,Chandragiri Nagarpalika,
78,Ayruvedic Teaching Hospital,Medical Facilities,Hospitals,,,,Yes,,,,200,,,27.70771,85.30541,Bagmati Province,KATHMANDU,Kathmandu Mahanagarpalika,
79,Chhauni-based Army Hospital,Medical Facilities,Hospitals,,,,Yes,,20,,100,,,27.71119,85.29121,Bagmati Province,KATHMANDU,Kathmandu Mahanagarpalika,
80,Ichangunarayan-based Army Barrack,Medical Facilities,Others,,,,Yes,,,,250,,,27.71795,85.28342,Bagmati Province,KATHMANDU,Nagarjun Nagarpalika,
81,"NEA Training Centre, Kharipati",Quarantine Centers,Quarantine Centers,Government,,,,,,,,,,27.6874485,85.4540765,Bagmati Province,BHAKTAPUR,Changunarayan Nagarpalika,
82,Nepal Army Tripureshwar,Quarantine Centers,Tents,Nepal Army,,,,,,,108,,,27.6991,85.314021,Bagmati Province,KATHMANDU,Kathmandu Mahanagarpalika,
83,"Mid Western University, Central Administration Building",Quarantine Centers,Others,Government,,,,,,,400,,,28.5865935,81.6095876,Karnali Province,SURKHET,Birendranagar Nagarpalika,
84,Mahendra Bahumukhi Campus,Quarantine Centers,Quarantine Centers,Government,,,,,,,,,,28.0386392,81.6081535,Province 5,BANKE,Nepalgunj Upamahanagarpalika,
85,"Nepal Army Khula Manch, Surkhet ",Quarantine Centers,Tents,Nepal Army,,,,,,,600,,,28.5969605,81.6205526,Karnali Province,SURKHET,Birendranagar Nagarpalika,
86,Bharatpur Temporary Hospital,Quarantine Centers,Quarantine Centers,Government,,,,,,,70,,,27.656949,84.407282,,CHITAWAN,Bharatpur Mahanagarpalika,